ONEWEB-0018             
1 45434U 20020L   25116.86642732  .00000467  00000+0  12821-2 0  9999
2 45434  87.8801 104.0488 0001920  87.3591 272.7757 13.11419406248072
ONEWEB-0083             
1 45435U 20020M   25116.85624148 -.00000217  00000+0 -64722-3 0  9993
2 45435  87.8803 104.0346 0001968  89.4074 270.7279 13.11418215248118
ONEWEB-0095             
1 45436U 20020N   25115.93234628 -.00000245  00000+0 -72719-3 0  9998
2 45436  87.8799 104.2462 0002493 102.1243 258.0164 13.11418366247982
ONEWEB-0092             
1 45437U 20020P   25116.89609518 -.00000107  00000+0 -33736-3 0  9992
2 45437  87.8798 104.0410 0002182  92.3532 267.7846 13.11412687248221
ONEWEB-0085             
1 45438U 20020Q   25116.23908244 -.00000438  00000+0 -12714-2 0  9998
2 45438  87.8801 104.1833 0001966  86.1792 273.9561 13.11417795248032
ONEWEB-0096             
1 45439U 20020R   25116.40019737  .00000314  00000+0  85109-3 0  9998
2 45439  87.8803 104.1174 0001978  82.0519 278.0833 13.11420180248049
ONEWEB-0037             
1 45440U 20020S   25116.45774990 -.00000482  00000+0 -13963-2 0  9990
2 45440  87.8795 104.0711 0002068  88.1879 271.9486 13.11419616248086
ONEWEB-0042             
1 45441U 20020T   25115.93208004 -.00000028  00000+0 -11473-3 0  9992
2 45441  87.8798 104.2216 0002031  84.3669 275.7690 13.11418888247973
